ATLAS CENTAUR R/B       
1 06155U 72065B   25312.66597307  .00002176  00000+0  30237-3 0  9996
2 06155  35.0021 294.7765 0033135  71.8856 288.5449 14.77272064823351
SL-8 R/B                
1 08459U 75112B   25312.74480461  .00000475  00000+0  16497-3 0  9994
2 08459  74.0606 241.3824 0015575 357.9318   2.1769 14.38111338614485
SL-3 R/B                
1 10114U 77057B   25312.76070351  .00015989  00000+0  37854-3 0  9996
2 10114  97.5683 114.7972 0007872   9.0691 351.0696 15.41840488649672
SEASAT 1                
1 10967U 78064A   25312.50819764  .00000699  00000+0  23429-3 0  9997
2 10967 108.0060 231.2302 0002475 257.8825 102.2044 14.46001411488991
SL-14 R/B               
1 11267U 79011B   25312.71269242  .00001076  00000+0  10413-3 0  9996
2 11267  82.5263 211.3089 0017694 100.3098 260.0117 14.91706098510746
SL-8 R/B                
1 11574U 79089B   25312.70944904  .00000402  00000+0  12967-3 0  9994
2 11574  74.0680 314.9646 0015182 162.6643 197.5035 14.42247341418660
SL-14 R/B               
1 11672U 80005B   25312.78048325  .00001219  00000+0  12142-3 0  9995
2 11672  82.5155  61.8983 0015208 201.8357 158.2216 14.90721773458476
SL-8 R/B                
1 12139U 81003B   25312.65561330  .00033386  00000+0  92795-3 0  9997
2 12139  82.9336  41.5295 0283132 238.1938 119.1437 15.05181659296439
SL-3 R/B                
1 12465U 81046B   25312.75734087  .00018755  00000+0  48785-3 0  9991
2 12465  81.2333  74.5526 0020781  80.6626 279.6964 15.38561363419812
METEOR PRIRODA          
1 12585U 81065A   25312.78754313  .00622929  19570-3  82535-3 0  9993
2 12585  97.4668  16.9450 0003826 268.0936  91.9908 16.06777345425352
SL-3 R/B                
1 12904U 81103B   25312.82189845  .00010224  00000+0  47775-3 0  9998
2 12904  81.1600 355.0611 0013617 346.3764  13.7096 15.19604007954867
SL-3 R/B                
1 13068U 82013B   25312.76010632  .00006559  00000+0  29597-3 0  9999
2 13068  81.1734 302.3747 0021846 224.5805 135.3670 15.20636628385962
