CCSDS_OMM_VERS = 2.0
CREATION_DATE  = 
ORIGINATOR     = 

OBJECT_NAME    = ATLAS CENTAUR R/B
OBJECT_ID      = 1972-065B
CENTER_NAME    = EARTH
REF_FRAME      = TEME
TIME_SYSTEM    = UTC
MEAN_ELEMENT_THEORY = SGP/SGP4

EPOCH          = 2025-11-08T15:59:00.073248
MEAN_MOTION    = 14.77272064
ECCENTRICITY   = .0033135
INCLINATION    = 35.0021
RA_OF_ASC_NODE = 294.7765
ARG_OF_PERICENTER = 71.8856
MEAN_ANOMALY   = 288.5449

EPHEMERIS_TYPE = 0
CLASSIFICATION_TYPE = U
NORAD_CAT_ID   = 6155
ELEMENT_SET_NO = 999
REV_AT_EPOCH   = 82335
BSTAR          = .30237E-3
MEAN_MOTION_DOT = .2176E-4
MEAN_MOTION_DDOT = 0

CCSDS_OMM_VERS = 2.0
CREATION_DATE  = 
ORIGINATOR     = 

OBJECT_NAME    = SL-8 R/B
OBJECT_ID      = 1975-112B
CENTER_NAME    = EARTH
REF_FRAME      = TEME
TIME_SYSTEM    = UTC
MEAN_ELEMENT_THEORY = SGP/SGP4

EPOCH          = 2025-11-08T17:52:31.118304
MEAN_MOTION    = 14.38111338
ECCENTRICITY   = .0015575
INCLINATION    = 74.0606
RA_OF_ASC_NODE = 241.3824
ARG_OF_PERICENTER = 357.9318
MEAN_ANOMALY   = 2.1769

EPHEMERIS_TYPE = 0
CLASSIFICATION_TYPE = U
NORAD_CAT_ID   = 8459
ELEMENT_SET_NO = 999
REV_AT_EPOCH   = 61448
BSTAR          = .16497E-3
MEAN_MOTION_DOT = .475E-5
MEAN_MOTION_DDOT = 0

CCSDS_OMM_VERS = 2.0
CREATION_DATE  = 
ORIGINATOR     = 

OBJECT_NAME    = SL-3 R/B
OBJECT_ID      = 1977-057B
CENTER_NAME    = EARTH
REF_FRAME      = TEME
TIME_SYSTEM    = UTC
MEAN_ELEMENT_THEORY = SGP/SGP4

EPOCH          = 2025-11-08T18:15:24.783264
MEAN_MOTION    = 15.41840488
ECCENTRICITY   = .0007872
INCLINATION    = 97.5683
RA_OF_ASC_NODE = 114.7972
ARG_OF_PERICENTER = 9.0691
MEAN_ANOMALY   = 351.0696

EPHEMERIS_TYPE = 0
CLASSIFICATION_TYPE = U
NORAD_CAT_ID   = 10114
ELEMENT_SET_NO = 999
REV_AT_EPOCH   = 64967
BSTAR          = .37854E-3
MEAN_MOTION_DOT = .15989E-3
MEAN_MOTION_DDOT = 0

CCSDS_OMM_VERS = 2.0
CREATION_DATE  = 
ORIGINATOR     = 

OBJECT_NAME    = SEASAT 1
OBJECT_ID      = 1978-064A
CENTER_NAME    = EARTH
REF_FRAME      = TEME
TIME_SYSTEM    = UTC
MEAN_ELEMENT_THEORY = SGP/SGP4

EPOCH          = 2025-11-08T12:11:48.276096
MEAN_MOTION    = 14.46001411
ECCENTRICITY   = .0002475
INCLINATION    = 108.0060
RA_OF_ASC_NODE = 231.2302
ARG_OF_PERICENTER = 257.8825
MEAN_ANOMALY   = 102.2044

EPHEMERIS_TYPE = 0
CLASSIFICATION_TYPE = U
NORAD_CAT_ID   = 10967
ELEMENT_SET_NO = 999
REV_AT_EPOCH   = 48899
BSTAR          = .23429E-3
MEAN_MOTION_DOT = .699E-5
MEAN_MOTION_DDOT = 0

CCSDS_OMM_VERS = 2.0
CREATION_DATE  = 
ORIGINATOR     = 

OBJECT_NAME    = SL-14 R/B
OBJECT_ID      = 1979-011B
CENTER_NAME    = EARTH
REF_FRAME      = TEME
TIME_SYSTEM    = UTC
MEAN_ELEMENT_THEORY = SGP/SGP4

EPOCH          = 2025-11-08T17:06:16.625088
MEAN_MOTION    = 14.91706098
ECCENTRICITY   = .0017694
INCLINATION    = 82.5263
RA_OF_ASC_NODE = 211.3089
ARG_OF_PERICENTER = 100.3098
MEAN_ANOMALY   = 260.0117

EPHEMERIS_TYPE = 0
CLASSIFICATION_TYPE = U
NORAD_CAT_ID   = 11267
ELEMENT_SET_NO = 999
REV_AT_EPOCH   = 51074
BSTAR          = .10413E-3
MEAN_MOTION_DOT = .1076E-4
MEAN_MOTION_DDOT = 0

CCSDS_OMM_VERS = 2.0
CREATION_DATE  = 
ORIGINATOR     = 

OBJECT_NAME    = SL-8 R/B
OBJECT_ID      = 1979-089B
CENTER_NAME    = EARTH
REF_FRAME      = TEME
TIME_SYSTEM    = UTC
MEAN_ELEMENT_THEORY = SGP/SGP4

EPOCH          = 2025-11-08T17:01:36.397056
MEAN_MOTION    = 14.42247341
ECCENTRICITY   = .0015182
INCLINATION    = 74.0680
RA_OF_ASC_NODE = 314.9646
ARG_OF_PERICENTER = 162.6643
MEAN_ANOMALY   = 197.5035

EPHEMERIS_TYPE = 0
CLASSIFICATION_TYPE = U
NORAD_CAT_ID   = 11574
ELEMENT_SET_NO = 999
REV_AT_EPOCH   = 41866
BSTAR          = .12967E-3
MEAN_MOTION_DOT = .402E-5
MEAN_MOTION_DDOT = 0

CCSDS_OMM_VERS = 2.0
CREATION_DATE  = 
ORIGINATOR     = 

OBJECT_NAME    = SL-14 R/B
OBJECT_ID      = 1980-005B
CENTER_NAME    = EARTH
REF_FRAME      = TEME
TIME_SYSTEM    = UTC
MEAN_ELEMENT_THEORY = SGP/SGP4

EPOCH          = 2025-11-08T18:43:53.752800
MEAN_MOTION    = 14.90721773
ECCENTRICITY   = .0015208
INCLINATION    = 82.5155
RA_OF_ASC_NODE = 61.8983
ARG_OF_PERICENTER = 201.8357
MEAN_ANOMALY   = 158.2216

EPHEMERIS_TYPE = 0
CLASSIFICATION_TYPE = U
NORAD_CAT_ID   = 11672
ELEMENT_SET_NO = 999
REV_AT_EPOCH   = 45847
BSTAR          = .12142E-3
MEAN_MOTION_DOT = .1219E-4
MEAN_MOTION_DDOT = 0

CCSDS_OMM_VERS = 2.0
CREATION_DATE  = 
ORIGINATOR     = 

OBJECT_NAME    = SL-8 R/B
OBJECT_ID      = 1981-003B
CENTER_NAME    = EARTH
REF_FRAME      = TEME
TIME_SYSTEM    = UTC
MEAN_ELEMENT_THEORY = SGP/SGP4

EPOCH          = 2025-11-08T15:44:04.989120
MEAN_MOTION    = 15.05181659
ECCENTRICITY   = .0283132
INCLINATION    = 82.9336
RA_OF_ASC_NODE = 41.5295
ARG_OF_PERICENTER = 238.1938
MEAN_ANOMALY   = 119.1437

EPHEMERIS_TYPE = 0
CLASSIFICATION_TYPE = U
NORAD_CAT_ID   = 12139
ELEMENT_SET_NO = 999
REV_AT_EPOCH   = 29643
BSTAR          = .92795E-3
MEAN_MOTION_DOT = .33386E-3
MEAN_MOTION_DDOT = 0

CCSDS_OMM_VERS = 2.0
CREATION_DATE  = 
ORIGINATOR     = 

OBJECT_NAME    = SL-3 R/B
OBJECT_ID      = 1981-046B
CENTER_NAME    = EARTH
REF_FRAME      = TEME
TIME_SYSTEM    = UTC
MEAN_ELEMENT_THEORY = SGP/SGP4

EPOCH          = 2025-11-08T18:10:34.251168
MEAN_MOTION    = 15.38561363
ECCENTRICITY   = .0020781
INCLINATION    = 81.2333
RA_OF_ASC_NODE = 74.5526
ARG_OF_PERICENTER = 80.6626
MEAN_ANOMALY   = 279.6964

EPHEMERIS_TYPE = 0
CLASSIFICATION_TYPE = U
NORAD_CAT_ID   = 12465
ELEMENT_SET_NO = 999
REV_AT_EPOCH   = 41981
BSTAR          = .48785E-3
MEAN_MOTION_DOT = .18755E-3
MEAN_MOTION_DDOT = 0

CCSDS_OMM_VERS = 2.0
CREATION_DATE  = 
ORIGINATOR     = 

OBJECT_NAME    = METEOR PRIRODA
OBJECT_ID      = 1981-065A
CENTER_NAME    = EARTH
REF_FRAME      = TEME
TIME_SYSTEM    = UTC
MEAN_ELEMENT_THEORY = SGP/SGP4

EPOCH          = 2025-11-08T18:54:03.726432
MEAN_MOTION    = 16.06777345
ECCENTRICITY   = .0003826
INCLINATION    = 97.4668
RA_OF_ASC_NODE = 16.9450
ARG_OF_PERICENTER = 268.0936
MEAN_ANOMALY   = 91.9908

EPHEMERIS_TYPE = 0
CLASSIFICATION_TYPE = U
NORAD_CAT_ID   = 12585
ELEMENT_SET_NO = 999
REV_AT_EPOCH   = 42535
BSTAR          = .82535E-3
MEAN_MOTION_DOT = .622929E-2
MEAN_MOTION_DDOT = .1957E-3

CCSDS_OMM_VERS = 2.0
CREATION_DATE  = 
ORIGINATOR     = 

OBJECT_NAME    = SL-3 R/B
OBJECT_ID      = 1981-103B
CENTER_NAME    = EARTH
REF_FRAME      = TEME
TIME_SYSTEM    = UTC
MEAN_ELEMENT_THEORY = SGP/SGP4

EPOCH          = 2025-11-08T19:43:32.026080
MEAN_MOTION    = 15.19604007
ECCENTRICITY   = .0013617
INCLINATION    = 81.1600
RA_OF_ASC_NODE = 355.0611
ARG_OF_PERICENTER = 346.3764
MEAN_ANOMALY   = 13.7096

EPHEMERIS_TYPE = 0
CLASSIFICATION_TYPE = U
NORAD_CAT_ID   = 12904
ELEMENT_SET_NO = 999
REV_AT_EPOCH   = 95486
BSTAR          = .47775E-3
MEAN_MOTION_DOT = .10224E-3
MEAN_MOTION_DDOT = 0

CCSDS_OMM_VERS = 2.0
CREATION_DATE  = 
ORIGINATOR     = 

OBJECT_NAME    = SL-3 R/B
OBJECT_ID      = 1982-013B
CENTER_NAME    = EARTH
REF_FRAME      = TEME
TIME_SYSTEM    = UTC
MEAN_ELEMENT_THEORY = SGP/SGP4

EPOCH          = 2025-11-08T18:14:33.186048
MEAN_MOTION    = 15.20636628
ECCENTRICITY   = .0021846
INCLINATION    = 81.1734
RA_OF_ASC_NODE = 302.3747
ARG_OF_PERICENTER = 224.5805
MEAN_ANOMALY   = 135.3670

EPHEMERIS_TYPE = 0
CLASSIFICATION_TYPE = U
NORAD_CAT_ID   = 13068
ELEMENT_SET_NO = 999
REV_AT_EPOCH   = 38596
BSTAR          = .29597E-3
MEAN_MOTION_DOT = .6559E-4
MEAN_MOTION_DDOT = 0

